norad_id,name,regime,epoch,line1,line2,inclination,eccentricity,mean_motion,raan,arg_pericenter,mean_anomaly
20083,RADUGA 1-1,EGO,24103.01071914,1 20083U 89048A   24103.01071914 -.00000215  00000-0  00000-0 0    18\,2 20083  13.5581 340.6419 0021898 131.0169  48.0327  0.98709879123416,13.5581,0.0021898,0.98709879,340.6419,131.0169,48.0327
20083,RADUGA 1-1,EGO,24104.19562950,1 20083U 89048A   24104.19562950 -.00000194  00000-0  00000-0 0    19\,2 20083  13.5569 340.6336 0021861 131.1035 109.0237  0.98709466123424,13.5569,0.0021861,0.98709466,340.6336,131.1035,109.0237
20083,RADUGA 1-1,EGO,24105.07688428,1 20083U 89048A   24105.07688428 -.00000176  00000-0  00000+0 0  1915\,2 20083  13.5559 340.6274 0021889 131.1466  62.1473  0.98709142123424,13.5559,0.0021889,0.98709142,340.6274,131.1466,62.1473
20083,RADUGA 1-1,EGO,24105.51356689,1 20083U 89048A   24105.51356689 -.00000166  00000-0  00000-0 0    15\,2 20083  13.5555 340.6243 0021912 131.1582 217.3167  0.98708977123432,13.5555,0.0021912,0.98708977,340.6243,131.1582,217.3167
20083,RADUGA 1-1,EGO,24106.01415191,1 20083U 89048A   24106.01415191 -.00000155  00000-0  00000-0 0    13\,2 20083  13.5549 340.6207 0021909 131.2091  35.1550  0.98708786123448,13.5549,0.0021909,0.98708786,340.6207,131.2091,35.155
20083,RADUGA 1-1,EGO,24107.08672437,1 20083U 89048A   24107.08672437 -.00000129  00000-0  00000-0 0    10\,2 20083  13.5538 340.6131 0021911 131.2704  56.2448  0.98708399123457,13.5538,0.0021911,0.98708399,340.6131,131.2704,56.2448
20083,RADUGA 1-1,EGO,24108.08784117,1 20083U 89048A   24108.08784117 -.00000105  00000-0  00000-0 0    14\,2 20083  13.5528 340.6061 0021922 131.3404  51.9323  0.98708070123469,13.5528,0.0021922,0.9870807,340.6061,131.3404,51.9323
20083,RADUGA 1-1,EGO,24109.08901174,1 20083U 89048A   24109.08901174 -.00000080  00000-0  00000-0 0    11\,2 20083  13.5517 340.5991 0021922 131.3985  47.6496  0.98707781123474,13.5517,0.0021922,0.98707781,340.5991,131.3985,47.6496
20083,RADUGA 1-1,EGO,24110.09011319,1 20083U 89048A   24110.09011319 -.00000055  00000-0  00000-0 0    19\,2 20083  13.5507 340.5921 0021912 131.4453  43.3526  0.98707532123488,13.5507,0.0021912,0.98707532,340.5921,131.4453,43.3526
20083,RADUGA 1-1,EGO,24110.59063816,1 20083U 89048A   24110.59063816 -.00000044  00000-0  00000-0 0    11\,2 20083  13.5501 340.5886 0021901 131.4640 221.1994  0.98707435123485,13.5501,0.0021901,0.98707435,340.5886,131.464,221.1994
20083,RADUGA 1-1,EGO,24111.09124884,1 20083U 89048A   24111.09124884 -.00000033  00000-0  00000-0 0    18\,2 20083  13.5496 340.5851 0021894 131.4867  39.0723  0.98707342123496,13.5496,0.0021894,0.98707342,340.5851,131.4867,39.0723
20083,RADUGA 1-1,EGO,24111.59175833,1 20083U 89048A   24111.59175833 -.00000022  00000-0  00000-0 0    11\,2 20083  13.5491 340.5817 0021901 131.5202 216.8981  0.98707262123498,13.5491,0.0021901,0.98707262,340.5817,131.5202,216.8981
20083,RADUGA 1-1,EGO,24112.58622212,1 20083U 89048A   24112.58622212 -.00000004  00000-0  00000-0 0    19\,2 20083  13.5480 340.5748 0021884 131.5664 210.2413  0.98707163123501,13.548,0.0021884,0.98707163,340.5748,131.5664,210.2413
20083,RADUGA 1-1,EGO,24113.16497240,1 20083U 89048A   24113.16497240  .00000006  00000-0  00000-0 0    16\,2 20083  13.5474 340.5707 0021883 131.5839  55.8865  0.98707134123515,13.5474,0.0021883,0.98707134,340.5707,131.5839,55.8865
20083,RADUGA 1-1,EGO,24113.57263394,1 20083U 89048A   24113.57263394  .00000012  00000-0  00000-0 0    19\,2 20083  13.5469 340.5679 0021872 131.6061 200.7292  0.98707128123511,13.5469,0.0021872,0.98707128,340.5679,131.6061,200.7292
20083,RADUGA 1-1,EGO,24114.57894064,1 20083U 89048A   24114.57894064  .00000023  00000-0  00000-0 0    16\,2 20083  13.5459 340.5610 0021853 131.6343 198.2987  0.98707164123520,13.5459,0.0021853,0.98707164,340.561,131.6343,198.2987
20083,RADUGA 1-1,EGO,24114.66656428,1 20083U 89048A   24114.66656428  .00000023  00000-0  00000-0 0    16\,2 20083  13.5458 340.5604 0021856 131.6414 229.4290  0.98707168123533,13.5458,0.0021856,0.98707168,340.5604,131.6414,229.429
20083,RADUGA 1-1,EGO,24115.16723811,1 20083U 89048A   24115.16723811  .00000027  00000-0  00000+0 0  1961\,2 20083  13.5453 340.5569 0021859 131.6446  47.3437  0.98707213123526,13.5453,0.0021859,0.98707213,340.5569,131.6446,47.3437
20083,RADUGA 1-1,EGO,24115.58048869,1 20083U 89048A   24115.58048869  .00000029  00000-0  00000-0 0    18\,2 20083  13.5448 340.5541 0021850 131.6751 194.1646  0.98707267123533,13.5448,0.002185,0.98707267,340.5541,131.6751,194.1646
20083,RADUGA 1-1,EGO,24115.66764340,1 20083U 89048A   24115.66764340  .00000029  00000-0  00000-0 0    16\,2 20083  13.5447 340.5534 0021848 131.6758 225.1349  0.98707279123536,13.5447,0.0021848,0.98707279,340.5534,131.6758,225.1349
20083,RADUGA 1-1,EGO,24116.58729987,1 20083U 89048A   24116.58729987  .00000030  00000-0  00000-0 0    18\,2 20083  13.5437 340.5470 0021839 131.6948 191.9226  0.98707444123544,13.5437,0.0021839,0.98707444,340.547,131.6948,191.9226
20083,RADUGA 1-1,EGO,24117.56815286,1 20083U 89048A   24117.56815286  .00000025  00000-0  00000+0 0  1974\,2 20083  13.5427 340.5401 0021829 131.7075 180.4640  0.98707677123550,13.5427,0.0021829,0.98707677,340.5401,131.7075,180.464
20083,RADUGA 1-1,EGO,24117.66999458,1 20083U 89048A   24117.66999458  .00000024  00000-0  00000-0 0    13\,2 20083  13.5425 340.5394 0021826 131.7067 216.6551  0.98707703123550,13.5425,0.0021826,0.98707703,340.5394,131.7067,216.6551
20083,RADUGA 1-1,EGO,24118.27383485,1 20083U 89048A   24118.27383485  .00000018  00000-0  00000-0 0    11\,2 20083  13.5419 340.5351 0021839 131.7072  71.2349  0.98707882123565,13.5419,0.0021839,0.98707882,340.5351,131.7072,71.2349
20083,RADUGA 1-1,EGO,24118.33863795,1 20083U 89048A   24118.33863795  .00000017  00000-0  00000-0 0    14\,2 20083  13.5419 340.5345 0021848 131.7277  94.2430  0.98707903123565,13.5419,0.0021848,0.98707903,340.5345,131.7277,94.243
20083,RADUGA 1-1,EGO,24119.25466052,1 20083U 89048A   24119.25466052  .00000004  00000-0  00000-0 0    17\,2 20083  13.5409 340.5280 0021844 131.7246  59.7639  0.98708210123574,13.5409,0.0021844,0.9870821,340.528,131.7246,59.7639
20083,RADUGA 1-1,EGO,24120.24373406,1 20083U 89048A   24120.24373406 -.00000015  00000-0  00000+0 0  1987\,2 20083  13.5399 340.5210 0021843 131.7236  51.2437  0.98708583123579,13.5399,0.0021843,0.98708583,340.521,131.7236,51.2437
20083,RADUGA 1-1,EGO,24120.59090233,1 20083U 89048A   24120.59090233 -.00000023  00000-0  00000-0 0    12\,2 20083  13.5395 340.5186 0021846 131.7417 174.5956  0.98708710123589,13.5395,0.0021846,0.9870871,340.5186,131.7417,174.5956
20083,RADUGA 1-1,EGO,24120.74413455,1 20083U 89048A   24120.74413455 -.00000026  00000-0  00000-0 0    17\,2 20083  13.5394 340.5174 0021854 131.7535 229.0365  0.98708764123595,13.5394,0.0021854,0.98708764,340.5174,131.7535,229.0365
20083,RADUGA 1-1,EGO,24121.31353663,1 20083U 89048A   24121.31353663 -.00000040  00000-0  00000-0 0    11\,2 20083  13.5387 340.5135 0021865 131.7366  71.3982  0.98709005123590,13.5387,0.0021865,0.98709005,340.5135,131.7366,71.3982
20083,RADUGA 1-1,EGO,24121.74509073,1 20083U 89048A   24121.74509073 -.00000052  00000-0  00000-0 0    19\,2 20083  13.5382 340.5104 0021852 131.7369 224.7571  0.98709196123599,13.5382,0.0021852,0.98709196,340.5104,131.7369,224.7571
20083,RADUGA 1-1,EGO,24122.31419187,1 20083U 89048A   24122.31419187 -.00000068  00000-0  00000-0 0    16\,2 20083  13.5377 340.5063 0021866 131.7294  67.0029  0.98709434123602,13.5377,0.0021866,0.98709434,340.5063,131.7294,67.0029
20083,RADUGA 1-1,EGO,24123.32399874,1 20083U 89048A   24123.32399874 -.00000098  00000-0  00000-0 0    11\,2 20083  13.5366 340.4991 0021880 131.7315  65.8520  0.98709864123619,13.5366,0.002188,0.98709864,340.4991,131.7315,65.852
20083,RADUGA 1-1,EGO,24124.31927902,1 20083U 89048A   24124.31927902 -.00000128  00000-0  00000-0 0    14\,2 20083  13.5356 340.4921 0021886 131.7322  59.5422  0.98710282123623,13.5356,0.0021886,0.98710282,340.4921,131.7322,59.5422
20083,RADUGA 1-1,EGO,24125.28174231,1 20083U 89048A   24125.28174231 -.00000157  00000-0  00000-0 0    12\,2 20083  13.5346 340.4853 0021911 131.7551  41.5490  0.98710649123633,13.5346,0.0021911,0.98710649,340.4853,131.7551,41.549
20083,RADUGA 1-1,EGO,24127.36299674,1 20083U 89048A   24127.36299674 -.00000214  00000-0  00000-0 0    16\,2 20083  13.5325 340.4705 0021973 131.8385  61.0830  0.98711282123651,13.5325,0.0021973,0.98711282,340.4705,131.8385,61.083
20083,RADUGA 1-1,EGO,24128.33190601,1 20083U 89048A   24128.33190601 -.00000236  00000-0  00000-0 0    18\,2 20083  13.5315 340.4636 0021998 131.8880  45.3565  0.98711463123662,13.5315,0.0021998,0.98711463,340.4636,131.888,45.3565
20083,RADUGA 1-1,EGO,24129.30587587,1 20083U 89048A   24129.30587587 -.00000254  00000-0  00000-0 0    19\,2 20083  13.5305 340.4566 0022025 131.9457  31.4210  0.98711571123670,13.5305,0.0022025,0.98711571,340.4566,131.9457,31.421
20083,RADUGA 1-1,EGO,24130.40196984,1 20083U 89048A   24130.40196984 -.00000268  00000-0  00000-0 0    14\,2 20083  13.5293 340.4488 0022048 132.0088  60.8803  0.98711596123688,13.5293,0.0022048,0.98711596,340.4488,132.0088,60.8803
20083,RADUGA 1-1,EGO,24132.44215944,1 20083U 89048A   24132.44215944 -.00000277  00000-0  00000-0 0    18\,2 20083  13.5271 340.4342 0022082 132.1613  65.7551  0.98711337123706,13.5271,0.0022082,0.98711337,340.4342,132.1613,65.7551
20083,RADUGA 1-1,EGO,24133.41765534,1 20083U 89048A   24133.41765534 -.00000271  00000-0  00000-0 0    15\,2 20083  13.5261 340.4273 0022091 132.2414  52.3379  0.98711069123711,13.5261,0.0022091,0.98711069,340.4273,132.2414,52.3379
20083,RADUGA 1-1,EGO,24134.45396561,1 20083U 89048A   24134.45396561 -.00000259  00000-0  00000-0 0    16\,2 20083  13.5250 340.4199 0022101 132.3247  60.5286  0.98710717123721,13.525,0.0022101,0.98710717,340.4199,132.3247,60.5286
